[{"OBJECT_NAME":"LIZZIESAT-2 (LS-2)","OBJECT_ID":"2024-247G","EPOCH":"2026-03-09T11:47:37.199328","MEAN_MOTION":15.28222796,"ECCENTRICITY":0.00040927,"INCLINATION":44.9909,"RA_OF_ASC_NODE":117.0823,"ARG_OF_PERICENTER":327.5136,"MEAN_ANOMALY":32.5495,"EPHEMERIS_TYPE":0,"CLASSIFICATION_TYPE":"U","NORAD_CAT_ID":62383,"ELEMENT_SET_NO":999,"REV_AT_EPOCH":6771,"BSTAR":0.00034516624,"MEAN_MOTION_DOT":9.388e-5,"MEAN_MOTION_DDOT":0},{"OBJECT_NAME":"STARLINK-33596","OBJECT_ID":"2025-015A","EPOCH":"2026-03-09T22:15:37.905120","MEAN_MOTION":15.30212806,"ECCENTRICITY":9.92e-5,"INCLINATION":53.1572,"RA_OF_ASC_NODE":321.6318,"ARG_OF_PERICENTER":112.1203,"MEAN_ANOMALY":247.9903,"EPHEMERIS_TYPE":0,"CLASSIFICATION_TYPE":"U","NORAD_CAT_ID":62758,"ELEMENT_SET_NO":999,"REV_AT_EPOCH":6444,"BSTAR":0.0010771292,"MEAN_MOTION_DOT":0.00031691,"MEAN_MOTION_DDOT":0}]
